[{"OBJECT_NAME":"LIZZIESAT-2 (LS-2)","OBJECT_ID":"2024-247G","EPOCH":"2026-03-09T11:47:37.199328","MEAN_MOTION":15.28222796,"ECCENTRICITY":0.00040927,"INCLINATION":44.9909,"RA_OF_ASC_NODE":117.0823,"ARG_OF_PERICENTER":327.5136,"MEAN_ANOMALY":32.5495,"EPHEMERIS_TYPE":0,"CLASSIFICATION_TYPE":"U","NORAD_CAT_ID":62383,"ELEMENT_SET_NO":999,"REV_AT_EPOCH":6771,"BSTAR":0.00034516624,"MEAN_MOTION_DOT":9.388e-5,"MEAN_MOTION_DDOT":0},{"OBJECT_NAME":"STARLINK-36037","OBJECT_ID":"2025-270AB","EPOCH":"2026-03-09T22:33:18.172224","MEAN_MOTION":15.27590044,"ECCENTRICITY":0.00013307,"INCLINATION":43.0039,"RA_OF_ASC_NODE":54.8088,"ARG_OF_PERICENTER":274.188,"MEAN_ANOMALY":85.882,"EPHEMERIS_TYPE":0,"CLASSIFICATION_TYPE":"U","NORAD_CAT_ID":66613,"ELEMENT_SET_NO":999,"REV_AT_EPOCH":1774,"BSTAR":0.0008442391,"MEAN_MOTION_DOT":0.00023049,"MEAN_MOTION_DDOT":0}]
